OPS 6582 (TRANSIT 5B-5) 
1 00965U 64083D   26101.20814515  .00000068  00000+0  81393-4 0  9998
2 00965  90.0794 202.4915 0043534 112.9707 272.9613 13.57006288 34535
LES-1                   
1 01002U 65008C   26101.22315217  .00000000  00000+0 -10597-2 0  9999
2 01002  32.1408 203.3485 0015470  28.3355 331.7982  9.88355101209566
SOLRAD 7B               
1 01291U 65016D   26101.13908395  .00000009  00000+0  45395-4 0  9997
2 01291  70.0818  18.8083 0022594 214.9571 145.0053 13.94967568107350
SECOR 4 (EGRS 4)        
1 01315U 65027B   26101.24452867  .00000073  00000+0  24345-3 0  9998
2 01315  90.2557  14.0456 0031732  18.2874 136.0079 12.92666408878278
TIROS 10                
1 01430U 65051A   26101.27367371  .00000131  00000+0  53167-4 0  9991
2 01430  98.4936 220.9309 0054087 280.1076  79.4014 14.41604241186278
ALOUETTE 2              
1 01804U 65098A   26101.13466887  .00000485  00000+0  15605-3 0  9990
2 01804  79.8014 333.7275 1330896   8.5172 353.6226 12.28303041671046
OV3-3                   
1 02389U 66070A   26101.24181594  .00014794  00000+0  66939-3 0  9995
2 02389  81.3291  30.0220 1017043 331.3297  23.5333 13.44043409589978
SECOR 7 (EGRS 7)        
1 02411U 66077B   26097.46395816 -.00000015  00000+0 -80765-2 0  9995
2 02411  90.3258 276.6204 0011764 126.4911 233.7026  8.59615472871306
ERS 15                  
1 02412U 66077C   26100.44689231  .00000002  00000+0  00000+0 0  9991
2 02412  90.3258 276.4473 0007264 131.8922 228.2550  8.59079516384645
ISIS 1                  
1 03669U 69009A   26101.11031285  .00000088  00000+0  53150-4 0  9992
2 03669  88.4479 151.7668 1707565  23.7554 343.3636 11.30422446352192
SECOR 13 (EGRS 13)      
1 03891U 69037B   26101.13199700 -.00000032  00000+0  17192-4 0  9995
2 03891  99.6592 335.4991 0040178  56.6388  64.6208 13.42974262792759
ATS 5                   
1 04068U 69069A   26101.22942917 -.00000257  00000+0  00000+0 0  9997
2 04068   0.2411 194.2215 0005834  88.6708 328.5469  0.99495476 45660
OPS 7613 (P/L 4)        
1 04237U 69082E   26101.12394660  .00000025  00000+0  56877-4 0  9995
2 04237  70.0142 247.1506 0022310 222.8875 312.4327 13.95985530876943
OPS 7613 (P/L 1)        
1 04256U 69082B   26101.32308291  .00000080  00000+0  91697-4 0  9993
2 04256  70.0071 108.6543 0018501 160.9859 199.1944 13.99178759881119
SHINSEI (MS-F2)         
1 05485U 71080A   26101.08749184  .00000026  00000+0  34364-5 0  9991
2 05485  32.0588  33.4681 0639755 315.3645  39.7114 12.74248572540698
PROSPERO (BLACK ARROW)  
1 05580U 71093A   26101.19406767  .00001358  00000+0  28485-3 0  9994
2 05580  82.0415 349.6381 0502842  59.2821 305.6886 14.01493903739146
OPS 7898 (P/L 2)        
1 05680U 71110C   26101.30512592 -.00000014  00000+0  37674-4 0  9992
2 05680  69.9879 140.9473 0010566 257.1111 102.8803 13.74753205339029
NOAA 2 (ITOS-D)         
1 06235U 72082A   26100.90800130 -.00000032  00000+0  93532-4 0  9996
2 06235 102.0133 118.7312 0003698 300.8001 123.8464 12.53212895446526
OSCAR 7 (AO-7)          
1 07530U 74089B   26101.26135762 -.00000028  00000+0  11678-3 0  9991
2 07530 101.9946 113.8018 0011875 258.4419 113.0613 12.53697001352137
TIROS N                 
1 11060U 78096A   26101.30979748  .00000135  00000+0  83896-4 0  9991
2 11060  98.4591 125.3771 0011591  78.4711 281.7767 14.19353456669265
PHASE 3B (AO-10)        
1 14129U 83058B   26100.38508147 -.00000235  00000+0  00000+0 0  9995
2 14129  25.9010 230.8917 6035193  96.9394 330.9290  2.05874290294090
HILAT                   
1 14154U 83063A   26101.32588106  .00000378  00000+0  11707-3 0  9994
2 14154  82.0254 223.1736 0040445 132.4481 248.7853 14.38670746237973
UOSAT 2 (UO-11)         
1 14781U 84021B   26101.16458168  .00001145  00000+0  12259-3 0  9997
2 14781  97.8003  67.5203 0008876  53.0865 307.1165 14.90623969247149
NOAA 9                  
1 15427U 84123A   26101.32776328  .00000091  00000+0  68582-4 0  9997
2 15427  99.1054 126.3984 0014755 175.4046 195.1830 14.17050183133959
GEOSAT                  
1 15595U 85021A   26101.11034384  .00000086  00000+0  70553-4 0  9992
2 15595 108.0515 301.8426 0002016 254.4163 105.6757 14.39936433153112
EUTELSAT 1-F4 (ECS 4)   
1 18351U 87078B   26100.94525576 -.00000231  00000+0  00000+0 0  9995
2 18351  13.8766 342.5963 0012021  32.6030 138.8456  0.98690807126093
PACSAT (AO-16)          
1 20439U 90005D   26101.04088244  .00000119  00000+0  59278-4 0  9997
2 20439  98.8594 135.1242 0011626  71.2388 318.9446 14.33915481892313
LUSAT (LO-19)           
1 20442U 90005G   26101.27336072  .00000112  00000+0  56682-4 0  9990
2 20442  98.8904 121.2198 0012344  46.5826 313.6383 14.34102144892809
IRS-1B                  
1 21688U 91061A   26101.25697221 -.00000180  00000+0 -93703-4 0  9992
2 21688  99.4141 107.5309 0024248 183.3106 187.7652 13.97867034659141
COSMOS 2197             
1 22034U 92042A   26101.22357397  .00000045  00000+0  18718-3 0  9992
2 22034  82.5897 271.7278 0013494  69.0551 103.5204 12.64250373556827
PEGASUS R/B             
1 22491U 93009C   26101.24696288  .00000761  00000+0  11771-3 0  9997
2 22491  24.9763 151.2373 0044362 104.8355 255.7075 14.57882281759859
EYESAT A (AO-27)        
1 22825U 93061C   26101.15219958  .00000075  00000+0  45671-4 0  9996
2 22825  98.6922 168.5764 0007334 300.8920  59.1541 14.30924297697416
ITAMSAT (IO-26)         
1 22826U 93061D   26101.15154072  .00000086  00000+0  49273-4 0  9996
2 22826  98.6870 168.4865 0007740 281.8485  78.1829 14.31349451697723
RADIO ROSTO (RS15)      
1 23439U 94085A   26101.24441520 -.00000034  00000+0  23977-3 0  9997
2 23439  64.8184  51.4782 0153922  16.0270 344.5447 11.27583824288357
JAS-2 (FO-29)           
1 24278U 96046B   26101.10318155 -.00000016  00000+0  22502-4 0  9994
2 24278  98.5326 319.1302 0348801 270.5319  85.5871 13.53270985464098
FORTE                   
1 24920U 97047A   26101.12709175  .00000125  00000+0  73636-4 0  9992
2 24920  69.9531 165.4892 0021592   2.1311 357.9899 14.27917026489116
NOAA 15                 
1 25338U 98030A   26101.30043301  .00000104  00000+0  60163-4 0  9999
2 25338  98.5124 123.7250 0010310 176.8834 183.2413 14.27125962451757
TECHSAT 1B (GO-32)      
1 25397U 98043D   26101.26299025  .00000066  00000+0  48520-4 0  9999
2 25397  99.0056  92.3414 0002215  67.4391 292.7021 14.24415170441809
ISS (ZARYA)             
1 25544U 98067A   26101.16675691  .00005918  00000+0  11600-3 0  9994
2 25544  51.6326 271.7779 0006464 298.5374  61.4964 15.48869271561365
ORSTED                  
1 25635U 99008B   26101.18760655  .00000663  00000+0  15410-3 0  9993
2 25635  96.4830  23.9180 0133129  42.1318 319.0024 14.51736468432243
LANDSAT 7               
1 25682U 99020A   26101.24874547  .00000356  00000+0  76744-4 0  9999
2 25682  97.8602 107.9517 0001208  81.9494 288.8769 14.63860775436056
ORBCOMM FM36            
1 25984U 99065E   26101.11933801  .00000929  00000+0  34365-3 0  9996
2 25984  45.0376 117.9448 0004043 322.2073  37.8492 14.39072469377329
DMSP 5D-3 F15 (USA 147) 
1 25991U 99067A   26101.24354352  .00000112  00000+0  77712-4 0  9996
2 25991  99.0037 138.9411 0009948 187.0401 252.3481 14.17538541361165
OPAL (OO-38)            
1 26063U 00004C   26101.23998833  .00000099  00000+0  51945-4 0  9991
2 26063 100.1891  25.7282 0035246 223.5709 136.2687 14.37941089373667
IMAGE                   
1 26113U 00017A   26096.53361734  .00000113  00000+0  79291-2 0  9990
2 26113  94.1726 314.4181 7486284 295.9694   7.5015  1.68665620160295
CLUSTER II-FM7 (SAMBA)  
1 26410U 00041A   26103.42847287  .00002693  00000+0  00000+0 0  9990
2 26410 149.4965  39.9054 8971645 256.3507   0.6187  0.44801462 20015
CLUSTER II-FM8 (TANGO)  
1 26464U 00045B   26100.86750016  .00003246  00000+0  00000+0 0  9996
2 26464 149.7573  40.4938 8972572 256.7727   0.6891  0.44408156 19998
MEGSAT-1                
1 26546U 00057B   26101.24363882  .00002422  00000+0  17927-3 0  9999
2 26546  64.5496 283.5667 0039529 291.0001  68.6889 15.05121274387581
PHASE 3D (AO-40)        
1 26609U 00072B   26100.87421484 -.00000246  00000+0  00000+0 0  9990
2 26609   9.5232   1.3795 7936643 157.3670 281.1020  1.25588546116666
ODIN                    
1 26702U 01007A   26101.05043228  .00049659  00000+0  56808-3 0  9991
2 26702  97.4005 138.4907 0003938  72.3770 287.7918 15.62002101378889
OMNI-M1                 
1 26857U 01026A   26092.29880186 -.00000028  00000+0  00000+0 0  9997
2 26857  44.8633 262.7500 0016940  37.5963 322.5250  3.92401908202596
PCSAT (NO-44)           
1 26931U 01043C   26101.24680633  .00000126  00000+0  77992-4 0  9997
2 26931  67.0509  57.4056 0006733 264.4698  95.5636 14.31929852280867
PROBA-1                 
1 26958U 01049B   26101.28955150  .00003566  00000+0  23318-3 0  9998
2 26958  97.9635 107.4923 0055094 350.7056   9.3145 15.07245691333546
SPOT 5                  
1 27421U 02021A   26101.10892960  .00000413  00000+0  96181-4 0  9992
2 27421  97.9924 142.9250 0130863 124.8141 236.5450 14.54696175253095
FENGYUN 1D              
1 27431U 02024B   26101.10030654 -.00000055  00000+0 -56487-5 0  9990
2 27431  98.9591 151.7152 0016364  73.2956 287.0009 14.10215569230021
SAUDISAT 1C (SO-50)     
1 27607U 02058C   26101.05674177  .00000877  00000+0  12114-3 0  9997
2 27607  64.5532 336.6627 0075528 274.6900  84.5583 14.82903640254503
CORIOLIS                
1 27640U 03001A   26101.25504882  .00000111  00000+0  72814-4 0  9995
2 27640  98.7153 109.1566 0014850  49.1584 311.0877 14.19925828204722
CUTE-1 (CO-55)          
1 27844U 03031E   26101.01962484  .00000311  00000+0  15370-3 0  9999
2 27844  98.6767 110.4182 0010060  27.5031 332.6678 14.24294173182117
CUBESAT XI-IV (CO-57)   
1 27848U 03031J   26100.90424602  .00000259  00000+0  13285-3 0  9999
2 27848  98.6797 110.0707 0010242  45.0972 315.1036 14.23585016181801
